{"type": "FeatureCollection", "features": [ {"type": "Feature", "properties": {"norad_id": 40115, "name": "WORLDVIEW-3 (WV-3)", "group": "resource", "lat": -47.01360713526022, "lon": 69.10019899475556, "alt_km": 621.1128224766235, "timestamp": "2025-12-14T07:33:19.135039+00:00", "meta": {"OBJECT_NAME": "WORLDVIEW-3 (WV-3)", "OBJECT_ID": "2014-048A", "EPOCH": "2025-12-13T15:36:12.578112", "MEAN_MOTION": 14.85515436, "ECCENTRICITY": 0.00048673, "INCLINATION": 97.8615, "RA_OF_ASC_NODE": 59.919, "ARG_OF_PERICENTER": 181.4476, "MEAN_ANOMALY": 178.6726, "EPHEMERIS_TYPE": 0, "CLASSIFICATION_TYPE": "U", "NORAD_CAT_ID": 40115, "ELEMENT_SET_NO": 999, "REV_AT_EPOCH": 61437, "BSTAR": 0.0001863981, "MEAN_MOTION_DOT": 1.556e-05, "MEAN_MOTION_DDOT": 0}, "tle": {"line1": "1 40115U 14048A   25347.65014558  .00001556  00000+0  18640-3 0  9991", "line2": "2 40115  97.8615  59.9190 0004867 181.4476 178.6726 14.85515436614378"}}, "geometry": {"type": "Point", "coordinates": [69.10019899475556, -47.01360713526022]}}, {"type": "Feature", "properties": {"norad_id": 40118, "name": "GAOFEN-2", "group": "resource", "lat": 75.4735434979619, "lon": -99.46255976852841, "alt_km": 614.1949609857411, "timestamp": "2025-12-14T07:33:19.135050+00:00", "meta": {"OBJECT_NAME": "GAOFEN-2", "OBJECT_ID": "2014-049A", "EPOCH": "2025-12-13T16:29:55.642848", "MEAN_MOTION": 14.80614512, "ECCENTRICITY": 0.00086321, "INCLINATION": 98.0383, "RA_OF_ASC_NODE": 46.8573, "ARG_OF_PERICENTER": 109.9277, "MEAN_ANOMALY": 250.2866, "EPHEMERIS_TYPE": 0, "CLASSIFICATION_TYPE": "U", "NORAD_CAT_ID": 40118, "ELEMENT_SET_NO": 999, "REV_AT_EPOCH": 61178, "BSTAR": 0.00023616679, "MEAN_MOTION_DOT": 1.76e-05, "MEAN_MOTION_DDOT": 0}, "tle": {"line1": "1 40118U 14049A   25347.68744957  .00001760  00000+0  23617-3 0  9998", "line2": "2 40118  98.0383  46.8573 0008632 109.9277 250.2866 14.80614512611788"}}, "geometry": {"type": "Point", "coordinates": [-99.46255976852841, 75.4735434979619]}}, {"type": "Feature", "properties": {"norad_id": 40143, "name": "YAOGAN-21", "group": "resource", "lat": -50.26185423145272, "lon": 40.27579753615809, "alt_km": 501.20104252898545, "timestamp": "2025-12-14T07:33:19.135060+00:00", "meta": {"OBJECT_NAME": "YAOGAN-21", "OBJECT_ID": "2014-053A", "EPOCH": "2025-12-13T16:00:59.363136", "MEAN_MOTION": 15.23696572, "ECCENTRICITY": 0.00096628, "INCLINATION": 97.1756, "RA_OF_ASC_NODE": 30.94, "ARG_OF_PERICENTER": 37.92, "MEAN_ANOMALY": 322.2717, "EPHEMERIS_TYPE": 0, "CLASSIFICATION_TYPE": "U", "NORAD_CAT_ID": 40143, "ELEMENT_SET_NO": 999, "REV_AT_EPOCH": 62668, "BSTAR": 0.00039668215, "MEAN_MOTION_DOT": 9.47e-05, "MEAN_MOTION_DDOT": 0}, "tle": {"line1": "1 40143U 14053A   25347.66735374  .00009470  00000+0  39668-3 0  9991", "line2": "2 40143  97.1756  30.9400 0009662  37.9200 322.2717 15.23696572626687"}}, "geometry": {"type": "Point", "coordinates": [40.27579753615809, -50.26185423145272]}}, {"type": "Feature", "properties": {"norad_id": 40275, "name": "YAOGAN-22", "group": "resource", "lat": 44.942101757971706, "lon": 120.83608536961471, "alt_km": 1202.1243041898533, "timestamp": "2025-12-14T07:33:19.135071+00:00", "meta": {"OBJECT_NAME": "YAOGAN-22", "OBJECT_ID": "2014-063A", "EPOCH": "2025-12-13T16:43:13.177056", "MEAN_MOTION": 13.15522642, "ECCENTRICITY": 0.00059602, "INCLINATION": 100.7422, "RA_OF_ASC_NODE": 131.1297, "ARG_OF_PERICENTER": 245.9397, "MEAN_ANOMALY": 114.1091, "EPHEMERIS_TYPE": 0, "CLASSIFICATION_TYPE": "U", "NORAD_CAT_ID": 40275, "ELEMENT_SET_NO": 999, "REV_AT_EPOCH": 53542, "BSTAR": 1.6334489e-05, "MEAN_MOTION_DOT": -4e-07, "MEAN_MOTION_DDOT": 0}, "tle": {"line1": "1 40275U 14063A   25347.69668029 -.00000040  00000+0  16334-4 0  9994", "line2": "2 40275 100.7422 131.1297 0005960 245.9397 114.1091 13.15522642535426"}}, "geometry": {"type": "Point", "coordinates": [120.83608536961471, 44.942101757971706]}}, {"type": "Feature", "properties": {"norad_id": 40298, "name": "ASNARO", "group": "resource", "lat": -26.25959059463339, "lon": 67.88109137374899, "alt_km": 516.0296412493308, "timestamp": "2025-12-14T07:33:19.135082+00:00", "meta": {"OBJECT_NAME": "ASNARO", "OBJECT_ID": "2014-070A", "EPOCH": "2025-12-13T15:52:02.800992", "MEAN_MOTION": 15.19533369, "ECCENTRICITY": 0.00056349, "INCLINATION": 97.365, "RA_OF_ASC_NODE": 63.5847, "ARG_OF_PERICENTER": 118.353, "MEAN_ANOMALY": 241.8274, "EPHEMERIS_TYPE": 0, "CLASSIFICATION_TYPE": "U", "NORAD_CAT_ID": 40298, "ELEMENT_SET_NO": 999, "REV_AT_EPOCH": 61583, "BSTAR": 0.00088440535, "MEAN_MOTION_DOT": 0.00018766, "MEAN_MOTION_DDOT": 0}, "tle": {"line1": "1 40298U 14070A   25347.66114353  .00018766  00000+0  88441-3 0  9990", "line2": "2 40298  97.3650  63.5847 0005634 118.3530 241.8274 15.19533369615833"}}, "geometry": {"type": "Point", "coordinates": [67.88109137374899, -26.25959059463339]}}, {"type": "Feature", "properties": {"norad_id": 40310, "name": "YAOGAN-24", "group": "resource", "lat": 59.53545615976178, "lon": 105.36545807856827, "alt_km": 632.4722361048289, "timestamp": "2025-12-14T07:33:19.135092+00:00", "meta": {"OBJECT_NAME": "YAOGAN-24", "OBJECT_ID": "2014-072A", "EPOCH": "2025-12-13T15:00:50.097312", "MEAN_MOTION": 14.76182881, "ECCENTRICITY": 0.00147979, "INCLINATION": 98.1217, "RA_OF_ASC_NODE": 118.7232, "ARG_OF_PERICENTER": 135.2228, "MEAN_ANOMALY": 225.0179, "EPHEMERIS_TYPE": 0, "CLASSIFICATION_TYPE": "U", "NORAD_CAT_ID": 40310, "ELEMENT_SET_NO": 999, "REV_AT_EPOCH": 59634, "BSTAR": 0.00031551035, "MEAN_MOTION_DOT": 2.133e-05, "MEAN_MOTION_DDOT": 0}, "tle": {"line1": "1 40310U 14072A   25347.62557983  .00002133  00000+0  31551-3 0  9994", "line2": "2 40310  98.1217 118.7232 0014797 135.2228 225.0179 14.76182881596342"}}, "geometry": {"type": "Point", "coordinates": [105.36545807856827, 59.53545615976178]}}, {"type": "Feature", "properties": {"norad_id": 40336, "name": "CBERS 4", "group": "resource", "lat": -67.48074996503794, "lon": 66.97308931275231, "alt_km": 781.7591374681615, "timestamp": "2025-12-14T07:33:19.135103+00:00", "meta": {"OBJECT_NAME": "CBERS 4", "OBJECT_ID": "2014-079A", "EPOCH": "2025-12-13T16:49:15.081600", "MEAN_MOTION": 14.35518637, "ECCENTRICITY": 0.00016496, "INCLINATION": 98.3306, "RA_OF_ASC_NODE": 45.6845, "ARG_OF_PERICENTER": 110.9749, "MEAN_ANOMALY": 249.1614, "EPHEMERIS_TYPE": 0, "CLASSIFICATION_TYPE": "U", "NORAD_CAT_ID": 40336, "ELEMENT_SET_NO": 999, "REV_AT_EPOCH": 57734, "BSTAR": 0.00011530531, "MEAN_MOTION_DOT": 2.9e-06, "MEAN_MOTION_DDOT": 0}, "tle": {"line1": "1 40336U 14079A   25347.70086900  .00000290  00000+0  11531-3 0  9992", "line2": "2 40336  98.3306  45.6845 0001649 110.9749 249.1614 14.35518637577346"}}, "geometry": {"type": "Point", "coordinates": [66.97308931275231, -67.48074996503794]}}, {"type": "Feature", "properties": {"norad_id": 40362, "name": "YAOGAN-26", "group": "resource", "lat": 66.19964028532233, "lon": -174.73628107338226, "alt_km": 441.34859433527254, "timestamp": "2025-12-14T07:33:19.135114+00:00", "meta": {"OBJECT_NAME": "YAOGAN-26", "OBJECT_ID": "2014-088A", "EPOCH": "2025-12-13T15:27:59.258304", "MEAN_MOTION": 15.39335506, "ECCENTRICITY": 0.00061552, "INCLINATION": 97.0647, "RA_OF_ASC_NODE": 348.2862, "ARG_OF_PERICENTER": 28.5852, "MEAN_ANOMALY": 331.5731, "EPHEMERIS_TYPE": 0, "CLASSIFICATION_TYPE": "U", "NORAD_CAT_ID": 40362, "ELEMENT_SET_NO": 999, "REV_AT_EPOCH": 60908, "BSTAR": 0.00038134514, "MEAN_MOTION_DOT": 0.00014828, "MEAN_MOTION_DDOT": 0}, "tle": {"line1": "1 40362U 14088A   25347.64443586  .00014828  00000+0  38135-3 0  9992", "line2": "2 40362  97.0647 348.2862 0006155  28.5852 331.5731 15.39335506609086"}}, "geometry": {"type": "Point", "coordinates": [-174.73628107338226, 66.19964028532233]}}, {"type": "Feature", "properties": {"norad_id": 40376, "name": "SMAP", "group": "resource", "lat": -67.22593141962334, "lon": 12.920730988166802, "alt_km": 690.4138744386955, "timestamp": "2025-12-14T07:33:19.135125+00:00", "meta": {"OBJECT_NAME": "SMAP", "OBJECT_ID": "2015-003A", "EPOCH": "2025-12-13T15:27:29.186784", "MEAN_MOTION": 14.63346503, "ECCENTRICITY": 0.00012034, "INCLINATION": 98.1291, "RA_OF_ASC_NODE": 352.3549, "ARG_OF_PERICENTER": 90.6358, "MEAN_ANOMALY": 269.4982, "EPHEMERIS_TYPE": 0, "CLASSIFICATION_TYPE": "U", "NORAD_CAT_ID": 40376, "ELEMENT_SET_NO": 999, "REV_AT_EPOCH": 58048, "BSTAR": 0.00017098049, "MEAN_MOTION_DOT": 8.36e-06, "MEAN_MOTION_DDOT": 0}, "tle": {"line1": "1 40376U 15003A   25347.64408781  .00000836  00000+0  17098-3 0  9992", "line2": "2 40376  98.1291 352.3549 0001203  90.6358 269.4982 14.63346503580480"}}, "geometry": {"type": "Point", "coordinates": [12.920730988166802, -67.22593141962334]}}, {"type": "Feature", "properties": {"norad_id": 40536, "name": "KOMPSAT-3A", "group": "resource", "lat": 77.03550498317348, "lon": -73.13005343137445, "alt_km": 424.53297923828904, "timestamp": "2025-12-14T07:33:19.135135+00:00", "meta": {"OBJECT_NAME": "KOMPSAT-3A", "OBJECT_ID": "2015-014A", "EPOCH": "2025-12-13T15:39:29.163168", "MEAN_MOTION": 15.43987755, "ECCENTRICITY": 0.00050031, "INCLINATION": 97.6787, "RA_OF_ASC_NODE": 322.0496, "ARG_OF_PERICENTER": 124.883, "MEAN_ANOMALY": 235.2889, "EPHEMERIS_TYPE": 0, "CLASSIFICATION_TYPE": "U", "NORAD_CAT_ID": 40536, "ELEMENT_SET_NO": 999, "REV_AT_EPOCH": 59309, "BSTAR": 0.00047513071, "MEAN_MOTION_DOT": 0.00021594, "MEAN_MOTION_DDOT": 0}, "tle": {"line1": "1 40536U 15014A   25347.65242087  .00021594  00000+0  47513-3 0  9997", "line2": "2 40536  97.6787 322.0496 0005003 124.8830 235.2889 15.43987755593091"}}, "geometry": {"type": "Point", "coordinates": [-73.13005343137445, 77.03550498317348]}}]}